{"type": "FeatureCollection", "features": [ {"type": "Feature", "properties": {"norad_id": 66583, "name": "STARLINK-35941", "group": "last-30-days", "lat": -7.866253081602856, "lon": -93.77046008549775, "alt_km": 411.5469803121787, "timestamp": "2025-12-20T03:42:46.118381+00:00", "meta": {"OBJECT_NAME": "STARLINK-35941", "OBJECT_ID": "2025-268AC", "EPOCH": "2025-12-19T16:04:41.528640", "MEAN_MOTION": 15.51345807, "ECCENTRICITY": 0.0001376, "INCLINATION": 42.9996, "RA_OF_ASC_NODE": 80.5444, "ARG_OF_PERICENTER": 334.8074, "MEAN_ANOMALY": 25.2719, "EPHEMERIS_TYPE": 0, "CLASSIFICATION_TYPE": "U", "NORAD_CAT_ID": 66583, "ELEMENT_SET_NO": 999, "REV_AT_EPOCH": 570, "BSTAR": 0.015175, "MEAN_MOTION_DOT": 0.01004457, "MEAN_MOTION_DDOT": 0}, "tle": {"line1": "1 66583U 25268AC  25353.66992510  .01004457  00000+0  15175-1 0  9997", "line2": "2 66583  42.9996  80.5444 0001376 334.8074  25.2719 15.51345807  5707"}}, "geometry": {"type": "Point", "coordinates": [-93.77046008549775, -7.866253081602856]}}, {"type": "Feature", "properties": {"norad_id": 66584, "name": "STARLINK-35939", "group": "last-30-days", "lat": -7.9589316568837125, "lon": -93.66868888971194, "alt_km": 413.2651646833574, "timestamp": "2025-12-20T03:42:46.118392+00:00", "meta": {"OBJECT_NAME": "STARLINK-35939", "OBJECT_ID": "2025-268AD", "EPOCH": "2025-12-19T14:31:27.869088", "MEAN_MOTION": 15.50751867, "ECCENTRICITY": 0.0002615, "INCLINATION": 42.9992, "RA_OF_ASC_NODE": 80.9182, "ARG_OF_PERICENTER": 187.8218, "MEAN_ANOMALY": 172.2602, "EPHEMERIS_TYPE": 0, "CLASSIFICATION_TYPE": "U", "NORAD_CAT_ID": 66584, "ELEMENT_SET_NO": 999, "REV_AT_EPOCH": 569, "BSTAR": 0.0012867, "MEAN_MOTION_DOT": 0.00076356, "MEAN_MOTION_DDOT": 0}, "tle": {"line1": "1 66584U 25268AD  25353.60518367  .00076356  00000+0  12867-2 0  9998", "line2": "2 66584  42.9992  80.9182 0002615 187.8218 172.2602 15.50751867  5698"}}, "geometry": {"type": "Point", "coordinates": [-93.66868888971194, -7.9589316568837125]}}, {"type": "Feature", "properties": {"norad_id": 66585, "name": "STARLINK-35963", "group": "last-30-days", "lat": -9.67796206309403, "lon": -91.75803265255746, "alt_km": 412.0068492836954, "timestamp": "2025-12-20T03:42:46.118402+00:00", "meta": {"OBJECT_NAME": "STARLINK-35963", "OBJECT_ID": "2025-268AE", "EPOCH": "2025-12-19T16:03:40.627008", "MEAN_MOTION": 15.50992135, "ECCENTRICITY": 0.0004163, "INCLINATION": 42.9984, "RA_OF_ASC_NODE": 80.5387, "ARG_OF_PERICENTER": 160.1889, "MEAN_ANOMALY": 199.9133, "EPHEMERIS_TYPE": 0, "CLASSIFICATION_TYPE": "U", "NORAD_CAT_ID": 66585, "ELEMENT_SET_NO": 999, "REV_AT_EPOCH": 570, "BSTAR": 0.001999, "MEAN_MOTION_DOT": 0.00120542, "MEAN_MOTION_DDOT": 0}, "tle": {"line1": "1 66585U 25268AE  25353.66922022  .00120542  00000+0  19990-2 0  9993", "line2": "2 66585  42.9984  80.5387 0004163 160.1889 199.9133 15.50992135  5703"}}, "geometry": {"type": "Point", "coordinates": [-91.75803265255746, -9.67796206309403]}}, {"type": "Feature", "properties": {"norad_id": 66586, "name": "TJS-21", "group": "last-30-days", "lat": -6.138415677489149, "lon": -15.344586155004501, "alt_km": 6782.482659580567, "timestamp": "2025-12-20T03:42:46.118415+00:00", "meta": {"OBJECT_NAME": "TJS-21", "OBJECT_ID": "2025-269A", "EPOCH": "2025-12-18T16:58:10.473888", "MEAN_MOTION": 2.00580748, "ECCENTRICITY": 0.6806869, "INCLINATION": 63.2733, "RA_OF_ASC_NODE": 161.7218, "ARG_OF_PERICENTER": 269.7428, "MEAN_ANOMALY": 18.6663, "EPHEMERIS_TYPE": 0, "CLASSIFICATION_TYPE": "U", "NORAD_CAT_ID": 66586, "ELEMENT_SET_NO": 999, "REV_AT_EPOCH": 55, "BSTAR": -0.059507049, "MEAN_MOTION_DOT": 1.084e-05, "MEAN_MOTION_DDOT": 0}, "tle": {"line1": "1 66586U 25269A   25352.70706567  .00001084  00000+0 -59507-1 0  9990", "line2": "2 66586  63.2733 161.7218 6806869 269.7428  18.6663  2.00580748   558"}}, "geometry": {"type": "Point", "coordinates": [-15.344586155004501, -6.138415677489149]}}, {"type": "Feature", "properties": {"norad_id": 66587, "name": "CZ-3B R/B", "group": "last-30-days", "lat": 6.6461983710286665, "lon": 173.1773054380149, "alt_km": 19734.015331224706, "timestamp": "2025-12-20T03:42:46.118429+00:00", "meta": {"OBJECT_NAME": "CZ-3B R/B", "OBJECT_ID": "2025-269B", "EPOCH": "2025-12-18T04:21:45.908640", "MEAN_MOTION": 2.0405465, "ECCENTRICITY": 0.75166459, "INCLINATION": 51.3412, "RA_OF_ASC_NODE": 168.3764, "ARG_OF_PERICENTER": 229.6756, "MEAN_ANOMALY": 36.1575, "EPHEMERIS_TYPE": 0, "CLASSIFICATION_TYPE": "U", "NORAD_CAT_ID": 66587, "ELEMENT_SET_NO": 999, "REV_AT_EPOCH": 56, "BSTAR": 0.00058948144, "MEAN_MOTION_DOT": 0.0008861, "MEAN_MOTION_DDOT": -1.447425e-06}, "tle": {"line1": "1 66587U 25269B   25352.18178135  .00088610 -14474-5  58948-3 0  9993", "line2": "2 66587  51.3412 168.3764 7516645 229.6756  36.1575  2.04054650   560"}}, "geometry": {"type": "Point", "coordinates": [173.1773054380149, 6.6461983710286665]}}, {"type": "Feature", "properties": {"norad_id": 66588, "name": "STARLINK-36076", "group": "last-30-days", "lat": 20.983749003284874, "lon": -54.254887814848885, "alt_km": 441.3688677354594, "timestamp": "2025-12-20T03:42:46.118441+00:00", "meta": {"OBJECT_NAME": "STARLINK-36076", "OBJECT_ID": "2025-270A", "EPOCH": "2025-12-19T19:17:34.645344", "MEAN_MOTION": 15.4070464, "ECCENTRICITY": 0.0002131, "INCLINATION": 42.9989, "RA_OF_ASC_NODE": 152.0729, "ARG_OF_PERICENTER": 265.6518, "MEAN_ANOMALY": 94.4095, "EPHEMERIS_TYPE": 0, "CLASSIFICATION_TYPE": "U", "NORAD_CAT_ID": 66588, "ELEMENT_SET_NO": 999, "REV_AT_EPOCH": 543, "BSTAR": 0.00072751, "MEAN_MOTION_DOT": 0.00030212, "MEAN_MOTION_DDOT": 0}, "tle": {"line1": "1 66588U 25270A   25353.80387321  .00030212  00000+0  72751-3 0  9991", "line2": "2 66588  42.9989 152.0729 0002131 265.6518  94.4095 15.40704640  5436"}}, "geometry": {"type": "Point", "coordinates": [-54.254887814848885, 20.983749003284874]}}, {"type": "Feature", "properties": {"norad_id": 66589, "name": "STARLINK-35447", "group": "last-30-days", "lat": -39.132601481897375, "lon": 30.63742783087872, "alt_km": 446.62384216555256, "timestamp": "2025-12-20T03:42:46.118452+00:00", "meta": {"OBJECT_NAME": "STARLINK-35447", "OBJECT_ID": "2025-270B", "EPOCH": "2025-12-19T20:00:01.999008", "MEAN_MOTION": 15.40661422, "ECCENTRICITY": 0.0001342, "INCLINATION": 42.9997, "RA_OF_ASC_NODE": 151.6649, "ARG_OF_PERICENTER": 292.291, "MEAN_ANOMALY": 331.0306, "EPHEMERIS_TYPE": 0, "CLASSIFICATION_TYPE": "U", "NORAD_CAT_ID": 66589, "ELEMENT_SET_NO": 999, "REV_AT_EPOCH": 564, "BSTAR": 0.0014536, "MEAN_MOTION_DOT": 0.00060824, "MEAN_MOTION_DDOT": 0}, "tle": {"line1": "1 66589U 25270B   25353.83335647  .00060824  00000+0  14536-2 0  9997", "line2": "2 66589  42.9997 151.6649 0001342 292.2910 331.0306 15.40661422  5645"}}, "geometry": {"type": "Point", "coordinates": [30.63742783087872, -39.132601481897375]}}, {"type": "Feature", "properties": {"norad_id": 66590, "name": "STARLINK-35429", "group": "last-30-days", "lat": -16.896538467400347, "lon": 130.5775698443413, "alt_km": 444.9352787032358, "timestamp": "2025-12-20T03:42:46.118462+00:00", "meta": {"OBJECT_NAME": "STARLINK-35429", "OBJECT_ID": "2025-270C", "EPOCH": "2025-12-19T20:00:01.999008", "MEAN_MOTION": 15.40663079, "ECCENTRICITY": 0.0001557, "INCLINATION": 43.0002, "RA_OF_ASC_NODE": 151.454, "ARG_OF_PERICENTER": 290.5479, "MEAN_ANOMALY": 59.8486, "EPHEMERIS_TYPE": 0, "CLASSIFICATION_TYPE": "U", "NORAD_CAT_ID": 66590, "ELEMENT_SET_NO": 999, "REV_AT_EPOCH": 564, "BSTAR": 0.0013423, "MEAN_MOTION_DOT": 0.0005611, "MEAN_MOTION_DDOT": 0}, "tle": {"line1": "1 66590U 25270C   25353.83335647  .00056110  00000+0  13423-2 0  9996", "line2": "2 66590  43.0002 151.4540 0001557 290.5479  59.8486 15.40663079  5647"}}, "geometry": {"type": "Point", "coordinates": [130.5775698443413, -16.896538467400347]}}, {"type": "Feature", "properties": {"norad_id": 66591, "name": "STARLINK-36058", "group": "last-30-days", "lat": 34.904349018539556, "lon": -162.11318026484435, "alt_km": 429.1978928251938, "timestamp": "2025-12-20T03:42:46.118473+00:00", "meta": {"OBJECT_NAME": "STARLINK-36058", "OBJECT_ID": "2025-270D", "EPOCH": "2025-12-19T20:00:01.999008", "MEAN_MOTION": 15.45605102, "ECCENTRICITY": 0.0001798, "INCLINATION": 42.9998, "RA_OF_ASC_NODE": 151.2683, "ARG_OF_PERICENTER": 277.6354, "MEAN_ANOMALY": 150.1304, "EPHEMERIS_TYPE": 0, "CLASSIFICATION_TYPE": "U", "NORAD_CAT_ID": 66591, "ELEMENT_SET_NO": 999, "REV_AT_EPOCH": 554, "BSTAR": -0.045179, "MEAN_MOTION_DOT": -0.0198813, "MEAN_MOTION_DDOT": 0}, "tle": {"line1": "1 66591U 25270D   25353.83335647 -.01988130  00000+0 -45179-1 0  9998", "line2": "2 66591  42.9998 151.2683 0001798 277.6354 150.1304 15.45605102  5542"}}, "geometry": {"type": "Point", "coordinates": [-162.11318026484435, 34.904349018539556]}}, {"type": "Feature", "properties": {"norad_id": 66592, "name": "STARLINK-36066", "group": "last-30-days", "lat": -12.345863227404006, "lon": -16.486378291189357, "alt_km": 444.89467778660674, "timestamp": "2025-12-20T03:42:46.118484+00:00", "meta": {"OBJECT_NAME": "STARLINK-36066", "OBJECT_ID": "2025-270E", "EPOCH": "2025-12-19T03:31:08.236704", "MEAN_MOTION": 15.40718174, "ECCENTRICITY": 0.00012951, "INCLINATION": 42.9987, "RA_OF_ASC_NODE": 155.7395, "ARG_OF_PERICENTER": 272.062, "MEAN_ANOMALY": 88.0088, "EPHEMERIS_TYPE": 0, "CLASSIFICATION_TYPE": "U", "NORAD_CAT_ID": 66592, "ELEMENT_SET_NO": 999, "REV_AT_EPOCH": 523, "BSTAR": 0.00069686524, "MEAN_MOTION_DOT": 0.00028934, "MEAN_MOTION_DDOT": 0}, "tle": {"line1": "1 66592U 25270E   25353.14662311  .00028934  00000+0  69687-3 0  9990", "line2": "2 66592  42.9987 155.7395 0001295 272.0620  88.0088 15.40718174  5230"}}, "geometry": {"type": "Point", "coordinates": [-16.486378291189357, -12.345863227404006]}}]}